[{"OBJECT_NAME":"STARLINK-36894","OBJECT_ID":"2026-038M","EPOCH":"2026-03-14T22:00:01.999584","MEAN_MOTION":15.75042723,"ECCENTRICITY":0.00014033,"INCLINATION":97.2852,"RA_OF_ASC_NODE":84.5065,"ARG_OF_PERICENTER":59.421,"MEAN_ANOMALY":224.3509,"EPHEMERIS_TYPE":0,"CLASSIFICATION_TYPE":"U","NORAD_CAT_ID":67972,"ELEMENT_SET_NO":999,"REV_AT_EPOCH":404,"BSTAR":0.001326386,"MEAN_MOTION_DOT":0.00201156,"MEAN_MOTION_DDOT":0},{"OBJECT_NAME":"STARLINK-36900","OBJECT_ID":"2026-038N","EPOCH":"2026-03-14T22:00:01.999584","MEAN_MOTION":15.7248123,"ECCENTRICITY":0.00015479,"INCLINATION":97.2836,"RA_OF_ASC_NODE":84.5107,"ARG_OF_PERICENTER":86.8682,"MEAN_ANOMALY":206.296,"EPHEMERIS_TYPE":0,"CLASSIFICATION_TYPE":"U","NORAD_CAT_ID":67973,"ELEMENT_SET_NO":999,"REV_AT_EPOCH":404,"BSTAR":-0.019524545,"MEAN_MOTION_DOT":-0.02253645,"MEAN_MOTION_DDOT":0},{"OBJECT_NAME":"STARLINK-36901","OBJECT_ID":"2026-038P","EPOCH":"2026-03-14T22:00:01.999584","MEAN_MOTION":15.75042365,"ECCENTRICITY":0.00010642,"INCLINATION":97.2852,"RA_OF_ASC_NODE":84.5086,"ARG_OF_PERICENTER":90.9162,"MEAN_ANOMALY":198.849,"EPHEMERIS_TYPE":0,"CLASSIFICATION_TYPE":"U","NORAD_CAT_ID":67974,"ELEMENT_SET_NO":999,"REV_AT_EPOCH":404,"BSTAR":0.0016209976,"MEAN_MOTION_DOT":0.00247204,"MEAN_MOTION_DDOT":0},{"OBJECT_NAME":"STARLINK-36883","OBJECT_ID":"2026-038Q","EPOCH":"2026-03-14T22:00:01.999584","MEAN_MOTION":15.75045477,"ECCENTRICITY":0.00015605,"INCLINATION":97.2828,"RA_OF_ASC_NODE":84.522,"ARG_OF_PERICENTER":77.7117,"MEAN_ANOMALY":248.0877,"EPHEMERIS_TYPE":0,"CLASSIFICATION_TYPE":"U","NORAD_CAT_ID":67975,"ELEMENT_SET_NO":999,"REV_AT_EPOCH":404,"BSTAR":0.0013479222,"MEAN_MOTION_DOT":0.00204531,"MEAN_MOTION_DDOT":0},{"OBJECT_NAME":"STARLINK-36880","OBJECT_ID":"2026-038R","EPOCH":"2026-03-14T22:00:01.999584","MEAN_MOTION":15.68785589,"ECCENTRICITY":0.00015035,"INCLINATION":97.2812,"RA_OF_ASC_NODE":84.5077,"ARG_OF_PERICENTER":92.6796,"MEAN_ANOMALY":196.5744,"EPHEMERIS_TYPE":0,"CLASSIFICATION_TYPE":"U","NORAD_CAT_ID":67976,"ELEMENT_SET_NO":999,"REV_AT_EPOCH":404,"BSTAR":-0.022759738,"MEAN_MOTION_DOT":-0.02249377,"MEAN_MOTION_DDOT":0},{"OBJECT_NAME":"STARLINK-36904","OBJECT_ID":"2026-038S","EPOCH":"2026-03-14T22:00:01.999584","MEAN_MOTION":15.75091848,"ECCENTRICITY":0.00011125,"INCLINATION":97.2824,"RA_OF_ASC_NODE":84.5181,"ARG_OF_PERICENTER":104.6611,"MEAN_ANOMALY":213.0953,"EPHEMERIS_TYPE":0,"CLASSIFICATION_TYPE":"U","NORAD_CAT_ID":67977,"ELEMENT_SET_NO":999,"REV_AT_EPOCH":404,"BSTAR":0.00095732833,"MEAN_MOTION_DOT":0.00144487,"MEAN_MOTION_DDOT":0},{"OBJECT_NAME":"STARLINK-36364","OBJECT_ID":"2026-038T","EPOCH":"2026-03-14T22:00:01.999584","MEAN_MOTION":15.75167382,"ECCENTRICITY":0.00011088,"INCLINATION":97.2813,"RA_OF_ASC_NODE":84.5271,"ARG_OF_PERICENTER":80.4978,"MEAN_ANOMALY":261.2291,"EPHEMERIS_TYPE":0,"CLASSIFICATION_TYPE":"U","NORAD_CAT_ID":67978,"ELEMENT_SET_NO":999,"REV_AT_EPOCH":404,"BSTAR":-0.00010051258,"MEAN_MOTION_DOT":-0.0001508,"MEAN_MOTION_DDOT":0},{"OBJECT_NAME":"STARLINK-36359","OBJECT_ID":"2026-038U","EPOCH":"2026-03-14T22:00:01.999584","MEAN_MOTION":15.75038248,"ECCENTRICITY":0.00014159,"INCLINATION":97.2828,"RA_OF_ASC_NODE":84.5152,"ARG_OF_PERICENTER":104.0674,"MEAN_ANOMALY":205.7036,"EPHEMERIS_TYPE":0,"CLASSIFICATION_TYPE":"U","NORAD_CAT_ID":67979,"ELEMENT_SET_NO":999,"REV_AT_EPOCH":404,"BSTAR":0.0015015374,"MEAN_MOTION_DOT":0.00228427,"MEAN_MOTION_DDOT":0},{"OBJECT_NAME":"STARLINK-36882","OBJECT_ID":"2026-038V","EPOCH":"2026-03-14T22:00:01.999584","MEAN_MOTION":15.75038947,"ECCENTRICITY":0.00015106,"INCLINATION":97.2826,"RA_OF_ASC_NODE":84.5248,"ARG_OF_PERICENTER":80.933,"MEAN_ANOMALY":252.8327,"EPHEMERIS_TYPE":0,"CLASSIFICATION_TYPE":"U","NORAD_CAT_ID":67980,"ELEMENT_SET_NO":999,"REV_AT_EPOCH":404,"BSTAR":0.0016249755,"MEAN_MOTION_DOT":0.00247791,"MEAN_MOTION_DDOT":0},{"OBJECT_NAME":"STARLINK-36874","OBJECT_ID":"2026-038W","EPOCH":"2026-03-14T22:00:01.999584","MEAN_MOTION":15.75145918,"ECCENTRICITY":0.00016224,"INCLINATION":97.2816,"RA_OF_ASC_NODE":84.5302,"ARG_OF_PERICENTER":102.6213,"MEAN_ANOMALY":245.1298,"EPHEMERIS_TYPE":0,"CLASSIFICATION_TYPE":"U","NORAD_CAT_ID":67981,"ELEMENT_SET_NO":999,"REV_AT_EPOCH":404,"BSTAR":0.00015711994,"MEAN_MOTION_DOT":0.00023325,"MEAN_MOTION_DDOT":0},{"OBJECT_NAME":"STARLINK-36879","OBJECT_ID":"2026-038X","EPOCH":"2026-03-14T22:00:01.999584","MEAN_MOTION":15.70776971,"ECCENTRICITY":0.00012537,"INCLINATION":97.2774,"RA_OF_ASC_NODE":84.5293,"ARG_OF_PERICENTER":78.1037,"MEAN_ANOMALY":270.7874,"EPHEMERIS_TYPE":0,"CLASSIFICATION_TYPE":"U","NORAD_CAT_ID":67982,"ELEMENT_SET_NO":999,"REV_AT_EPOCH":404,"BSTAR":-0.020896956,"MEAN_MOTION_DOT":-0.02244765,"MEAN_MOTION_DDOT":0},{"OBJECT_NAME":"STARLINK-36867","OBJECT_ID":"2026-038Y","EPOCH":"2026-03-14T22:00:01.999584","MEAN_MOTION":15.73902906,"ECCENTRICITY":0.00018216,"INCLINATION":97.2769,"RA_OF_ASC_NODE":84.5382,"ARG_OF_PERICENTER":90.4205,"MEAN_ANOMALY":280.7583,"EPHEMERIS_TYPE":0,"CLASSIFICATION_TYPE":"U","NORAD_CAT_ID":67983,"ELEMENT_SET_NO":999,"REV_AT_EPOCH":404,"BSTAR":-0.018173807,"MEAN_MOTION_DOT":-0.02233559,"MEAN_MOTION_DDOT":0},{"OBJECT_NAME":"STARLINK-36266","OBJECT_ID":"2026-038Z","EPOCH":"2026-03-14T22:00:01.999584","MEAN_MOTION":15.75040298,"ECCENTRICITY":0.00012658,"INCLINATION":97.2818,"RA_OF_ASC_NODE":84.5362,"ARG_OF_PERICENTER":87.6301,"MEAN_ANOMALY":276.1315,"EPHEMERIS_TYPE":0,"CLASSIFICATION_TYPE":"U","NORAD_CAT_ID":67984,"ELEMENT_SET_NO":999,"REV_AT_EPOCH":401,"BSTAR":0.0016226733,"MEAN_MOTION_DOT":0.00247444,"MEAN_MOTION_DDOT":0},{"OBJECT_NAME":"STARLINK-36802","OBJECT_ID":"2026-038AA","EPOCH":"2026-03-14T22:00:01.999584","MEAN_MOTION":15.75212211,"ECCENTRICITY":0.00013594,"INCLINATION":97.2762,"RA_OF_ASC_NODE":84.5404,"ARG_OF_PERICENTER":83.3519,"MEAN_ANOMALY":294.4271,"EPHEMERIS_TYPE":0,"CLASSIFICATION_TYPE":"U","NORAD_CAT_ID":67985,"ELEMENT_SET_NO":999,"REV_AT_EPOCH":404,"BSTAR":-0.00095109608,"MEAN_MOTION_DOT":-0.00139831,"MEAN_MOTION_DDOT":0},{"OBJECT_NAME":"STARLINK-36535","OBJECT_ID":"2026-039A","EPOCH":"2026-03-14T22:07:46.200864","MEAN_MOTION":15.80648853,"ECCENTRICITY":0.00020342,"INCLINATION":42.9985,"RA_OF_ASC_NODE":22.8749,"ARG_OF_PERICENTER":243.4858,"MEAN_ANOMALY":116.5804,"EPHEMERIS_TYPE":0,"CLASSIFICATION_TYPE":"U","NORAD_CAT_ID":67986,"ELEMENT_SET_NO":999,"REV_AT_EPOCH":246,"BSTAR":-0.0051420155,"MEAN_MOTION_DOT":-0.00914935,"MEAN_MOTION_DDOT":0},{"OBJECT_NAME":"STARLINK-36744","OBJECT_ID":"2026-039B","EPOCH":"2026-03-14T20:35:25.818144","MEAN_MOTION":15.82063452,"ECCENTRICITY":0.00010092,"INCLINATION":42.9986,"RA_OF_ASC_NODE":23.2538,"ARG_OF_PERICENTER":209.9988,"MEAN_ANOMALY":150.0826,"EPHEMERIS_TYPE":0,"CLASSIFICATION_TYPE":"U","NORAD_CAT_ID":67987,"ELEMENT_SET_NO":999,"REV_AT_EPOCH":245,"BSTAR":0.00029305457,"MEAN_MOTION_DOT":0.00061751,"MEAN_MOTION_DDOT":0}]
