STARLINK-36894          
1 67972U 26038M   26073.91668981  .00201156  00000+0  13264-2 0  9998
2 67972  97.2852  84.5065 0001403  59.4210 224.3509 15.75042723  4042
STARLINK-36900          
1 67973U 26038N   26073.91668981 -.02253645  00000+0 -19525-1 0  9998
2 67973  97.2836  84.5107 0001547  86.8682 206.2960 15.72481230  4045
STARLINK-36901          
1 67974U 26038P   26073.91668981  .00247204  00000+0  16210-2 0  9998
2 67974  97.2852  84.5086 0001064  90.9162 198.8490 15.75042365  4042
STARLINK-36883          
1 67975U 26038Q   26073.91668981  .00204531  00000+0  13479-2 0  9999
2 67975  97.2828  84.5220 0001560  77.7117 248.0877 15.75045477  4044
STARLINK-36880          
1 67976U 26038R   26073.91668981 -.02249377  00000+0 -22760-1 0  9993
2 67976  97.2812  84.5077 0001503  92.6796 196.5744 15.68785589  4041
STARLINK-36904          
1 67977U 26038S   26073.91668981  .00144487  00000+0  95733-3 0  9998
2 67977  97.2824  84.5181 0001112 104.6611 213.0953 15.75091848  4040
STARLINK-36364          
1 67978U 26038T   26073.91668981 -.00015080  00000+0 -10051-3 0  9997
2 67978  97.2813  84.5271 0001108  80.4978 261.2291 15.75167382  4048
STARLINK-36359          
1 67979U 26038U   26073.91668981  .00228427  00000+0  15015-2 0  9991
2 67979  97.2828  84.5152 0001415 104.0674 205.7036 15.75038248  4048
STARLINK-36882          
1 67980U 26038V   26073.91668981  .00247791  00000+0  16250-2 0  9990
2 67980  97.2826  84.5248 0001510  80.9330 252.8327 15.75038947  4043
STARLINK-36874          
1 67981U 26038W   26073.91668981  .00023325  00000+0  15712-3 0  9999
2 67981  97.2816  84.5302 0001622 102.6213 245.1298 15.75145918  4049
STARLINK-36879          
1 67982U 26038X   26073.91668981 -.02244765  00000+0 -20897-1 0  9995
2 67982  97.2774  84.5293 0001253  78.1037 270.7874 15.70776971  4041
STARLINK-36867          
1 67983U 26038Y   26073.91668981 -.02233559  00000+0 -18174-1 0  9990
2 67983  97.2769  84.5382 0001821  90.4205 280.7583 15.73902906  4040
STARLINK-36266          
1 67984U 26038Z   26073.91668981  .00247444  00000+0  16227-2 0  9993
2 67984  97.2818  84.5362 0001265  87.6301 276.1315 15.75040298  4019
STARLINK-36802          
1 67985U 26038AA  26073.91668981 -.00139831  00000+0 -95110-3 0  9995
2 67985  97.2762  84.5404 0001359  83.3519 294.4271 15.75212211  4046
STARLINK-36535          
1 67986U 26039A   26073.92206251 -.00914935  00000+0 -51420-2 0  9997
2 67986  42.9985  22.8749 0002034 243.4858 116.5804 15.80648853  2465
STARLINK-36744          
1 67987U 26039B   26073.85793771  .00061751  00000+0  29305-3 0  9993
2 67987  42.9986  23.2538 0001009 209.9988 150.0826 15.82063452  2454
